[Satellite]
VERSION=1.1
NAME=PALAPA D
NICKNAME=PALAPA D
TLE1=1 35812U 09046A   15054.77713622 -.00000384  00000-0  10000-3 0  9998
TLE2=2 35812   0.0130  93.8768 0001443 291.0966 161.0624  1.00270516 20252
